CSS (TIANHE)            
1 48274U 21035A   26188.45886303  .00008899  00000+0  11943-3 0  9992
2 48274  41.4676 198.7215 0002931 276.4067  83.6437 15.58027856296336
